0 METEOR 2-6 DEB
1 36307U 80073K   13294.20952419  .00003687  00000-0  18211-2 0  1360
2 36307 081.2138 274.9488 0025555 259.2919 306.1668 14.17075374245825
